{
    "links": {
        "self": "http://www.neowsapp.com/rest/v1/neo/3639548?api_key=iIulBulltgU6a56xZRHN4H3l9WmuAYTsLGpBGhQ2"
    },
    "id": "3639548",
    "neo_reference_id": "3639548",
    "name": "(2013 LD7)",
    "designation": "2013 LD7",
    "nasa_jpl_url": "http://ssd.jpl.nasa.gov/sbdb.cgi?sstr=3639548",
    "absolute_magnitude_h": 25.3,
    "estimated_diameter": {
        "kilometers": {
            "estimated_diameter_min": 0.0231502122,
            "estimated_diameter_max": 0.0517654482
        },
        "meters": {
            "estimated_diameter_min": 23.150212221,
            "estimated_diameter_max": 51.7654482198
        },
        "miles": {
            "estimated_diameter_min": 0.0143848705,
            "estimated_diameter_max": 0.0321655483
        },
        "feet": {
            "estimated_diameter_min": 75.9521422633,
            "estimated_diameter_max": 169.8341531374
        }
    },
    "is_potentially_hazardous_asteroid": false,
    "close_approach_data": [
        {
            "close_approach_date": "2013-05-24",
            "close_approach_date_full": "2013-May-24 01:46",
            "epoch_date_close_approach": 1369359960000,
            "relative_velocity": {
                "kilometers_per_second": "9.3533127082",
                "kilometers_per_hour": "33671.9257496078",
                "miles_per_hour": "20922.4251970272"
            },
            "miss_distance": {
                "astronomical": "0.0388433187",
                "lunar": "15.1100509743",
                "kilometers": "5810877.741251169",
                "miles": "3610711.9974733722"
            },
            "orbiting_body": "Earth"
        }
    ],
    "orbital_data": {
        "orbit_id": "5",
        "orbit_determination_date": "2017-04-06 08:45:39",
        "first_observation_date": "2013-06-06",
        "last_observation_date": "2013-06-07",
        "data_arc_in_days": 1,
        "observations_used": 14,
        "orbit_uncertainty": "9",
        "minimum_orbit_intersection": ".0308651",
        "jupiter_tisserand_invariant": "5.307",
        "epoch_osculation": "2456450.5",
        "eccentricity": ".2284550190717611",
        "semi_major_axis": "1.18186070041717",
        "inclination": "13.01869946668303",
        "ascending_node_longitude": "246.5881974667957",
        "orbital_period": "469.2970932485039",
        "perihelion_distance": ".9118586915632007",
        "perihelion_argument": "285.8733451161659",
        "aphelion_distance": "1.45186270927114",
        "perihelion_time": "2456376.447732058501",
        "mean_anomaly": "56.80584184829623",
        "mean_motion": ".7671046873699077",
        "equinox": "J2000",
        "orbit_class": {
            "orbit_class_type": "APO",
            "orbit_class_description": "Near-Earth asteroid orbits which cross the Earth’s orbit similar to that of 1862 Apollo",
            "orbit_class_range": "a (semi-major axis) > 1.0 AU; q (perihelion) < 1.017 AU"
        }
    },
    "is_sentry_object": false
}